     3.01           N: GNSS NAV DATA    M: Mixed            RINEX VERSION / TYPE
CONVBIN 2.4.3 Emlid                     20170723 120104 UTC PGM / RUN BY / DATE 
log: raw_201707231150                                       COMMENT             
format: u-blox                                              COMMENT             
GPSA   0.0000E+00  0.0000E+00  0.0000E+00  0.0000E+00       IONOSPHERIC CORR    
GPSB   0.0000E+00  0.0000E+00  0.0000E+00  0.0000E+00       IONOSPHERIC CORR    
GAL    0.0000E+00  0.0000E+00  0.0000E+00  0.0000E+00       IONOSPHERIC CORR    
QZSA   6.5193E-09  0.0000E+00 -6.5565E-07 -1.2517E-06       IONOSPHERIC CORR    
QZSB   9.8304E+04 -9.8304E+04 -1.0486E+06  8.3231E+06       IONOSPHERIC CORR    
GPUT  0.0000000000E+00 0.000000000E+00      0 2048          TIME SYSTEM CORR    
GAUT  0.0000000000E+00 0.000000000E+00      0    0          TIME SYSTEM CORR    
     0                                                      LEAP SECONDS        
                                                            END OF HEADER       
G16 2017  7 23 14  0  0  .362298451364E-04  .341060513165E-12  .000000000000E+00
      .210000000000E+02  .166406250000E+03  .399659504565E-08  .226690017379E+01
      .855512917042E-05  .927404337563E-02  .766851007938E-05  .515373603249E+04
      .504000000000E+05 -.210478901863E-06  .743525571236E+00 -.502914190292E-07
      .989473757908E+00  .246968750000E+03  .461894097435E+00 -.783246911092E-08
      .436803908922E-09  .100000000000E+01  .195900000000E+04  .000000000000E+00
      .200000000000E+01  .000000000000E+00 -.107102096081E-07  .210000000000E+02
      .432060000000E+05  .400000000000E+01
G29 2017  7 23 14  0  0  .582503154874E-03 -.397903932026E-11  .000000000000E+00
      .150000000000E+02 -.442500000000E+02  .448125809096E-08  .279961470159E+01
     -.245310366154E-05  .634226365946E-03  .134110450745E-06  .515359407616E+04
      .504000000000E+05 -.651925802231E-07  .177127527138E+01 -.521540641785E-07
      .981328434851E+00  .384125000000E+03  .690546067604E+00 -.837213444729E-08
     -.255724937684E-09  .100000000000E+01  .195900000000E+04  .000000000000E+00
      .200000000000E+01  .000000000000E+00 -.977888703346E-08  .150000000000E+02
      .432060000000E+05  .400000000000E+01
G 4 2017  7 23 14  0  0  .520143657923E-06  .443378667114E-11  .000000000000E+00
      .200000000000E+02  .759375000000E+01  .526629079072E-08  .159168318649E+01
      .515952706337E-06  .122816197108E-01 -.478699803352E-06  .515366112518E+04
      .504000000000E+05 -.134110450745E-06  .162006156920E+01  .242143869400E-06
      .956352969288E+00  .389187500000E+03  .423779975886E+00 -.891144262593E-08
     -.153934983439E-09  .100000000000E+01  .195900000000E+04  .000000000000E+00
      .280000000000E+01  .630000000000E+02 -.558793544769E-08  .200000000000E+02
      .432060000000E+05  .400000000000E+01
G 5 2017  7 23 14  0  0 -.361292622983E-04  .147792889038E-11  .000000000000E+00
      .200000000000E+02  .133750000000E+02  .466376569313E-08  .212705366985E+01
      .646337866783E-06  .510465644766E-02  .107828527689E-04  .515379598618E+04
      .504000000000E+05 -.912696123123E-07 -.249263713047E+01 -.633299350739E-07
      .947063914933E+00  .167468750000E+03  .556004070978E+00 -.802819154926E-08
      .594667627436E-09  .100000000000E+01  .195900000000E+04  .000000000000E+00
      .200000000000E+01  .000000000000E+00 -.107102096081E-07  .200000000000E+02
      .432060000000E+05  .400000000000E+01
G18 2017  7 23 14  0  0  .624710693955E-03  .125055521494E-11  .000000000000E+00
      .360000000000E+02  .237812500000E+02  .490413284825E-08  .281023597107E+01
      .119395554066E-05  .181270486210E-01  .108685344458E-04  .515362090492E+04
      .504000000000E+05  .130385160446E-06 -.252289129454E+01 -.428408384323E-07
      .925911199141E+00  .145687500000E+03 -.179032778686E+01 -.781996859022E-08
      .671099382554E-09  .100000000000E+01  .195900000000E+04  .000000000000E+00
      .200000000000E+01  .000000000000E+00 -.111758708954E-07  .360000000000E+02
      .432060000000E+05  .400000000000E+01
G27 2017  7 23 14  0  0  .298563856632E-03  .636646291241E-11  .000000000000E+00
      .114000000000E+03 -.189375000000E+02  .480948604868E-08  .137239079064E+01
     -.797212123871E-06  .490003440063E-02 -.340864062309E-06  .515366455078E+04
      .504000000000E+05  .931322574615E-08  .170873037548E+01  .108033418655E-06
      .975043841187E+00  .393343750000E+03  .392280801236E+00 -.865964642332E-08
     -.187864968187E-09  .100000000000E+01  .195900000000E+04  .000000000000E+00
      .200000000000E+01  .000000000000E+00  .139698386192E-08  .114000000000E+03
      .432060000000E+05  .400000000000E+01
R19 2017  7 23 12 15  0 -.136801972985E-04 -.272848410532E-11  .432000000000E+05
      .392042333984E+04 -.137120151520E+01  .279396772385E-08  .000000000000E+00
      .130737333984E+05  .261843967438E+01 -.186264514923E-08  .300000000000E+01
      .215433154297E+05 -.133884906769E+01 -.186264514923E-08  .000000000000E+00
R10 2017  7 23 12 15  0  .111591070890E-04 -.909494701773E-12  .432000000000E+05
      .186814453125E+05  .213512420654E+01  .651925802231E-08  .000000000000E+00
     -.757073681641E+04 -.211666107178E+00  .931322574615E-09 -.700000000000E+01
      .155537998047E+05 -.267206859589E+01  .931322574615E-09  .000000000000E+00
R 3 2017  7 23 12 15  0  .106169842184E-03  .909494701773E-12  .432000000000E+05
     -.631808593750E+04 -.160998821259E+01  .000000000000E+00  .000000000000E+00
      .101936962891E+05 -.262132835388E+01 -.931322574615E-09  .500000000000E+01
      .225618041992E+05  .731445312500E+00 -.279396772385E-08  .000000000000E+00
R20 2017  7 23 12 15  0 -.299892388284E-03 -.909494701773E-12  .432000000000E+05
      .136495136719E+05 -.149086761475E+01  .558793544769E-08  .000000000000E+00
     -.479896191406E+04  .246509552002E+01  .000000000000E+00  .200000000000E+01
      .209927626953E+05  .153754520416E+01  .000000000000E+00  .000000000000E+00
R11 2017  7 23 12 15  0 -.623892992735E-05  .000000000000E+00  .432000000000E+05
      .932121093750E+03  .314916229248E+01  .279396772385E-08  .000000000000E+00
     -.109458452148E+05 -.797748565674E-01  .931322574615E-09  .000000000000E+00
      .230341542969E+05 -.170145988464E+00 -.186264514923E-08  .000000000000E+00
R 4 2017  7 23 12 15  0  .224107876420E-03  .909494701773E-12  .432000000000E+05
      .655721142578E+04 -.782726287842E+00  .186264514923E-08  .000000000000E+00
      .213831435547E+05 -.149229431152E+01 -.279396772385E-08  .600000000000E+01
      .123003525391E+05  .301533985138E+01 -.931322574615E-09  .000000000000E+00
R 9 2017  7 23 12 15  0  .295583158731E-04  .181898940355E-11  .432000000000E+05
      .253542875977E+05 -.326565742493E+00  .558793544769E-08  .000000000000E+00
      .630185058594E+03 -.140644073486E+00  .000000000000E+00 -.200000000000E+01
     -.234728613281E+04 -.355204868317E+01  .372529029846E-08  .000000000000E+00
R18 2017  7 23 12 15  0  .159453600645E-03  .181898940355E-11  .432000000000E+05
     -.752539941406E+04 -.404435157776E+00 -.931322574615E-09  .000000000000E+00
      .227125395508E+05  .117012405396E+01 -.279396772385E-08 -.300000000000E+01
      .894054638672E+04 -.330942153931E+01 -.186264514923E-08  .000000000000E+00
R 2 2017  7 23 12 15  0  .261524692178E-03  .181898940355E-11  .432000000000E+05
     -.151626396484E+05 -.148180770874E+01 -.931322574615E-09  .000000000000E+00
     -.688421435547E+04 -.218780612946E+01  .931322574615E-09 -.400000000000E+01
      .193481577148E+05 -.194804954529E+01 -.372529029846E-08  .000000000000E+00
J 1 2017  7 23 13  0  0 -.120595097542E-03  .235331754084E-10  .000000000000E+00
      .490000000000E+02  .661718750000E+03  .283261798991E-08 -.271232716939E+01
      .192131847143E-04  .751869481755E-01  .217817723751E-04  .649348444366E+04
      .468000000000E+05  .157579779625E-05 -.248003079965E+01 -.806525349617E-06
      .713304137032E+00 -.529781250000E+03 -.155938304956E+01 -.272547066965E-08
      .660027492794E-09  .200000000000E+01  .195900000000E+04  .100000000000E+01
      .280000000000E+01  .000000000000E+00 -.558793544769E-08  .817000000000E+03
      .432360000000E+05  .100000000000E+01
G 7 2017  7 23 14  0  0  .324637163430E-03 -.466116034659E-11  .000000000000E+00
      .480000000000E+02  .421875000000E+01  .433160900033E-08 -.143457242349E+01
      .782310962677E-07  .108911208808E-01  .116117298603E-04  .515373004341E+04
      .504000000000E+05  .147148966789E-06 -.360361902223E+00 -.147148966789E-06
      .961965545200E+00  .150843750000E+03 -.258320952379E+01 -.773567936495E-08
     -.441089801732E-09  .100000000000E+01  .195900000000E+04  .000000000000E+00
      .200000000000E+01  .000000000000E+00 -.111758708954E-07  .480000000000E+02
      .432360000000E+05  .400000000000E+01
